{
  "type": "FeatureCollection",
  "name": "ne_10m_admin_0_countries",
  "features": [
    {
      "type": "Feature",
      "properties": {
        "ADMIN": "China",
        "NAME": "China",
        "NAME_ZH": "中国",
        "ISO_A2": "CN"
      },
      "geometry": {
        "type": "Polygon",
        "coordinates": [
          [
            [103.8, 1.2], [101.4, 3.1], [95.0, 5.0], [77.0, 8.0], [80.0, 13.0], [72.0, 20.0],
            [62.0, 25.0], [71.0, 38.0], [80.0, 48.0], [90.0, 48.0], [120.0, 53.0], [135.0, 48.0],
            [130.0, 42.0], [124.0, 40.0], [121.5, 39.0], [122.5, 37.0], [119.5, 35.0], [121.5, 32.0],
            [122.0, 30.0], [121.5, 28.0], [119.8, 26.0], [118.0, 24.0], [114.0, 22.5], [110.0, 21.5],
            [108.5, 21.5], [105.0, 23.0]
          ]
        ]
      }
    },
    {
      "type": "Feature",
      "properties": {
        "ADMIN": "Taiwan",
        "NAME": "Taiwan",
        "NAME_ZH": "中国台湾",
        "ISO_A2": "TW"
      },
      "geometry": {
        "type": "Polygon",
        "coordinates": [
          [
            [120.85, 21.90], [120.72, 22.00], [120.60, 22.25], [120.40, 22.45], [120.25, 22.65],
            [120.08, 23.00], [120.12, 23.50], [120.35, 24.05], [120.75, 24.60], [121.00, 25.05],
            [121.45, 25.28], [121.55, 25.29], [121.80, 25.15], [122.00, 25.02], [121.85, 24.75],
            [121.82, 24.40], [121.65, 24.00], [121.45, 23.50], [121.32, 23.00], [121.15, 22.75],
            [120.90, 22.40], [120.90, 21.95], [120.85, 21.90]
          ]
        ]
      }
    },
    {
      "type": "Feature",
      "properties": {
        "ADMIN": "Japan",
        "NAME": "Japan",
        "NAME_ZH": "日本",
        "ISO_A2": "JP"
      },
      "geometry": {
        "type": "Polygon",
        "coordinates": [
          [
            [136.5, 34.6], [135.3, 33.7], [133.5, 34.5], [132.0, 35.5], [130.9, 34.3],
            [132.5, 35.0], [136.0, 36.0], [137.2, 37.5], [139.0, 38.0], [139.9, 40.5],
            [140.9, 41.5], [141.7, 40.5], [141.5, 38.3], [140.8, 36.0], [139.8, 35.0],
            [138.5, 35.0], [137.0, 34.6], [136.5, 34.6]
          ]
        ]
      }
    },
    {
      "type": "Feature",
      "properties": {
        "ADMIN": "Philippines",
        "NAME": "Philippines",
        "NAME_ZH": "菲律宾",
        "ISO_A2": "PH"
      },
      "geometry": {
        "type": "Polygon",
        "coordinates": [
          [
            [123.8, 12.5], [123.7, 13.2], [121.2, 13.8], [120.5, 14.6], [119.8, 16.0],
            [120.6, 18.6], [122.3, 18.6], [122.4, 16.5], [121.8, 14.2], [124.2, 13.0], [123.8, 12.5]
          ]
        ]
      }
    },
    {
      "type": "Feature",
      "properties": {
        "ADMIN": "Vietnam",
        "NAME": "Vietnam",
        "NAME_ZH": "越南",
        "ISO_A2": "VN"
      },
      "geometry": {
        "type": "Polygon",
        "coordinates": [
          [
            [108.5, 16.0], [105.0, 10.0], [104.0, 10.5], [105.0, 12.0], [107.0, 14.0],
            [106.0, 18.0], [105.0, 20.0], [108.5, 21.5], [108.5, 16.0]
          ]
        ]
      }
    },
    {
      "type": "Feature",
      "properties": {
        "ADMIN": "South Korea",
        "NAME": "South Korea",
        "NAME_ZH": "韩国",
        "ISO_A2": "KR"
      },
      "geometry": {
        "type": "Polygon",
        "coordinates": [
          [
            [126.0, 34.3], [127.5, 34.3], [129.1, 35.1], [129.4, 36.0], [128.6, 38.2],
            [127.0, 38.3], [126.0, 37.5], [126.0, 34.3]
          ]
        ]
      }
    }
  ]
}
